[{"OBJECT_NAME":"IRIDIUM 162","OBJECT_ID":"2018-047G","EPOCH":"2026-03-09T16:09:02.112768","MEAN_MOTION":14.43274905,"ECCENTRICITY":0.0002109,"INCLINATION":86.4501,"RA_OF_ASC_NODE":129.9826,"ARG_OF_PERICENTER":95.166,"MEAN_ANOMALY":264.9782,"EPHEMERIS_TYPE":0,"CLASSIFICATION_TYPE":"U","NORAD_CAT_ID":43482,"ELEMENT_SET_NO":999,"REV_AT_EPOCH":41077,"BSTAR":7.0339294e-5,"MEAN_MOTION_DOT":2.57e-6,"MEAN_MOTION_DDOT":0},{"OBJECT_NAME":"CZ-6A DEB","OBJECT_ID":"2024-140ACC","EPOCH":"2026-03-09T03:08:44.687328","MEAN_MOTION":14.29434506,"ECCENTRICITY":0.00855423,"INCLINATION":89.3886,"RA_OF_ASC_NODE":311.6835,"ARG_OF_PERICENTER":198.3187,"MEAN_ANOMALY":161.4923,"EPHEMERIS_TYPE":0,"CLASSIFICATION_TYPE":"U","NORAD_CAT_ID":61812,"ELEMENT_SET_NO":999,"REV_AT_EPOCH":7866,"BSTAR":0.0012479921,"MEAN_MOTION_DOT":3.324e-5,"MEAN_MOTION_DDOT":0}]
